IRIDIUM 39              
1 25042U 97069D   26027.64442960  .00001181  00000+0  30196-3 0  9998
2 25042  86.3923 114.9464 0015486 276.8295  83.1147 14.49593830481472
IRIDIUM 38              
1 25043U 97069E   26027.75396289  .00000817  00000+0  26181-3 0  9997
2 25043  86.4003 138.7644 0004035  89.0138 271.1522 14.38374634478238
IRIDIUM 42              
1 25077U 97077A   26027.75861872  .00000781  00000+0  25919-3 0  9996
2 25077  86.4012 145.2093 0002905  97.2535 262.8992 14.36585264473438
IRIDIUM 44              
1 25078U 97077B   26027.73156572  .00000613  00000+0  18672-3 0  9991
2 25078  86.3987 126.5512 0002976  56.4283 303.7200 14.40480642476026
IRIDIUM 45              
1 25104U 97082A   26027.69938609  .00032184  00000+0  84239-3 0  9991
2 25104  86.3543 297.9789 0090722 202.1491 157.5832 15.34378938486317
IRIDIUM 24              
1 25105U 97082B   26027.82862719  .00000978  00000+0  28962-3 0  9992
2 25105  86.3942 344.9973 0013311  60.7053 299.5476 14.42390511475598
IRIDIUM 51              
1 25262U 98018A   26027.72968628  .00261820  00000+0  15724-2 0  9997
2 25262  86.3699 302.4227 0044531  90.1749 270.4627 15.75646908481852
IRIDIUM 57              
1 25273U 98019B   26027.48127231  .00000550  00000+0  18236-3 0  9993
2 25273  86.3918  51.1922 0002338  88.7904 271.3560 14.36091757456976
